STARLINK-5684           
1 55453U 23015E   24216.30020911  .00001927  00000+0  15768-3 0  9992
2 55453  43.0003 256.2655 0001357 263.2173  96.8515 15.02538127 82991
STARLINK-5636           
1 55454U 23015F   24216.42650118  .00000276  00000+0  35532-4 0  9992
2 55454  43.0021 255.4851 0001259 276.9406  83.1293 15.02538415 83018
STARLINK-5680           
1 55455U 23015G   24216.10742477 -.00000053  00000+0  11129-4 0  9998
2 55455  43.0026 257.4014 0000808 264.4797  95.5953 15.02536345 82964
STARLINK-5058           
1 55456U 23015H   24216.82647529  .00001613  00000+0  13439-3 0  9997
2 55456  43.0025 253.3358 0001170 274.8818  85.1891 15.02543378 82894
STARLINK-5682           
1 55457U 23015J   24216.49630436 -.00000071  00000+0  98148-5 0  9990
2 55457  43.0020 255.1569 0001154 274.4335  85.6376 15.02544285 83023
STARLINK-5020           
1 55458U 23015K   24216.81537892  .00000173  00000+0  27868-4 0  9991
2 55458  42.9989 253.2488 0001308 266.9974  93.0719 15.02536215 83074
STARLINK-5669           
1 55459U 23015L   24216.81981785  .00001992  00000+0  16246-3 0  9993
2 55459  43.0010 253.2844 0001297 276.7566  83.3128 15.02546626 83074
STARLINK-5678           
1 55460U 23015M   24216.48410424  .00003288  00000+0  25832-3 0  9996
2 55460  43.0002 255.0652 0001736 268.9769  91.0875 15.02536862 83021
STARLINK-5646           
1 55461U 23015N   24216.49076224  .00004249  00000+0  32937-3 0  9996
2 55461  43.0008 255.1155 0001348 280.6754  79.3936 15.02542401 83024
STARLINK-5673           
1 55462U 23015P   24216.47299694  .00000628  00000+0  61561-4 0  9996
2 55462  43.0012 254.9795 0001108 276.8491  83.2225 15.02540353 83025
STARLINK-5677           
1 55463U 23015Q   24216.54502481 -.00000321  00000+0 -86627-5 0  9999
2 55463  43.0019 254.6606 0001334 268.7972  91.2717 15.02539604 83039
STARLINK-5676           
1 55464U 23015R   24216.79873820  .00000992  00000+0  88471-4 0  9995
2 55464  43.0032 253.1226 0001460 267.7155  92.3520 15.02538859 83078
STARLINK-5674           
1 55465U 23015S   24216.46967442 -.00000267  00000+0 -46988-5 0  9999
2 55465  43.0016 254.9567 0001218 278.8338  81.2366 15.02539733 83027
STARLINK-5628           
1 55466U 23015T   24216.78539444 -.00013497  00000+0 -98499-3 0  9993
2 55466  42.9998 253.0261 0001317 247.0731 112.9973 15.02573360 83076
STARLINK-5679           
1 55467U 23015U   24216.40985751 -.00000220  00000+0 -11815-5 0  9998
2 55467  43.0015 255.3669 0001233 258.7412 101.3292 15.02538400 83014
STARLINK-5672           
1 55468U 23015V   24216.39764605 -.00000598  00000+0 -29141-4 0  9998
2 55468  43.0014 255.2743 0002316 269.1341  90.9236 15.02536370 83011
STARLINK-5681           
1 55469U 23015W   24216.79984175 -.00000410  00000+0 -15306-4 0  9990
2 55469  43.0014 253.1322 0001108 276.7313  83.3403 15.02535396 83078
STARLINK-5708           
1 55470U 23015X   24216.12729204 -.00000614  00000+0 -30403-4 0  9990
2 55470  43.0015 256.6881 0001282 303.9158  56.1562 15.02542621 82973
STARLINK-5711           
1 55471U 23015Y   24216.78984424  .00002490  00000+0  19933-3 0  9996
2 55471  43.0024 253.0570 0001265 274.4117  85.6581 15.02541652 83071
STARLINK-5705           
1 55472U 23015Z   24216.78911304  .00002379  00000+0  19104-3 0  9990
2 55472  43.0008 240.9063 0001316 274.4579  85.6112 15.02547024 83210
STARLINK-5687           
1 55473U 23015AA  24216.38282350  .00022555  00000+0  12075-2 0  9996
2 55473  43.0020 245.0458 0011822  61.0129 299.1901 15.14570978 83139
STARLINK-5689           
1 55474U 23015AB  24216.82621366  .00000290  00000+0  36559-4 0  9997
2 55474  43.0022 266.3226 0001319 270.1888  89.8803 15.02552589 82922
STARLINK-5650           
1 55475U 23015AC  24216.51617460  .00000405  00000+0  45056-4 0  9994
2 55475  43.0017 254.4425 0001265 269.5642  90.5056 15.02539831 83033
STARLINK-5685           
1 55477U 23015AE  24216.78356359 -.00002336  00000+0 -15791-3 0  9991
2 55477  43.0018 240.8599 0001082 261.5574  98.5146 15.02544970 83218
STARLINK-5691           
1 55478U 23015AF  24216.45007659  .00001005  00000+0  89439-4 0  9993
2 55478  43.0023 242.6588 0001718 257.8394 102.2256 15.02533792 83166
STARLINK-5688           
1 55479U 23015AG  24216.79244334  .00001930  00000+0  15789-3 0  9997
2 55479  43.0021 240.9266 0001120 265.8622  94.2092 15.02541151 83211
STARLINK-5690           
1 55480U 23015AH  24216.41402671  .00001110  00000+0  97260-4 0  9993
2 55480  43.0010 268.3055 0001354 265.5846  94.4842 15.02536724 82860
STARLINK-5694           
1 55481U 23015AJ  24216.82177745 -.00001407  00000+0 -89113-4 0  9999
2 55481  43.0020 266.2892 0000861 259.1900 100.8845 15.02534781 82923
STARLINK-5693           
1 55482U 23015AK  24216.86605384 -.00000041  00000+0  12065-4 0  9993
2 55482  43.0022 265.7609 0001421 265.2856  94.7824 15.02550717 82753
STARLINK-5692           
1 55483U 23015AL  24216.54588468  .00000448  00000+0  48260-4 0  9998
2 55483  43.0015 267.6578 0001363 268.8190  91.2496 15.02544345 82888
STARLINK-5696           
1 55484U 23015AM  24216.53699632  .00000206  00000+0  30297-4 0  9997
2 55484  43.0003 267.5926 0001291 268.4700  91.5995 15.02538151 82880
STARLINK-5695           
1 55485U 23015AN  24216.41958872  .00000291  00000+0  36605-4 0  9992
2 55485  43.0029 268.4299 0001152 277.1728  82.8983 15.02536062 82862
STARLINK-5704           
1 55486U 23015AP  24216.87159833  .00000543  00000+0  55237-4 0  9995
2 55486  43.0025 265.7553 0001212 264.6378  95.4326 15.02548346 82938
STARLINK-5701           
1 55487U 23015AQ  24216.55364412  .00000954  00000+0  85663-4 0  9994
2 55487  43.0012 267.7161 0001194 274.3621  85.7085 15.02539945 82883
STARLINK-5706           
1 55488U 23015AR  24216.86161193  .00000695  00000+0  66519-4 0  9991
2 55488  43.0018 265.7214 0001352 266.3963  93.6725 15.02550682 82939
STARLINK-5371           
1 55489U 23015AS  24216.47607534  .00008479  00000+0  64187-3 0  9999
2 55489  43.0001 267.9943 0001274 279.8393  80.2306 15.02543032 82875
STARLINK-5373           
1 55490U 23015AT  24216.20793841 -.00000335  00000+0 -97530-5 0  9994
2 55490  43.0006 269.4120 0001051 273.2304  86.8418 15.02536798 82832
STARLINK-5364           
1 55491U 23015AU  24216.79343968 -.00000406  00000+0 -15016-4 0  9997
2 55491  42.9993 240.0662 0000805 275.9802  84.0948 15.02530434 83223
STARLINK-5013           
1 55492U 23015AV  24216.86495171 -.00001179  00000+0 -72212-4 0  9999
2 55492  42.9984 265.7488 0000479 352.0220   8.0614 15.02532212 82751
STARLINK-5362           
1 55493U 23015AW  24216.53588594 -.00000721  00000+0 -38292-4 0  9998
2 55493  43.0012 267.5765 0001238 277.5176  82.5525 15.02543982 82887
STARLINK-5344           
1 55494U 23015AX  24216.45386567  .00002556  00000+0  20419-3 0  9993
2 55494  43.0014 267.8226 0001039 283.1862  76.8865 15.02540053 82877
STARLINK-5100           
1 55495U 23015AY  24216.77912118 -.00001772  00000+0 -11605-3 0  9994
2 55495  43.0021 240.8266 0001331 261.0373  99.0319 15.02552743 83037
STARLINK-5363           
1 55497U 23015BA  24216.85162735 -.00002381  00000+0 -16115-3 0  9995
2 55497  43.0005 265.6455 0001402 276.3949  83.6734 15.02550533 82936
STARLINK-5365           
1 55498U 23015BB  24216.51036872  .00000267  00000+0  34809-4 0  9991
2 55498  43.0025 267.3856 0001442 266.0093  94.0584 15.02545330 82885
STARLINK-5366           
1 55499U 23015BC  24216.83609226  .00000923  00000+0  83408-4 0  9994
2 55499  43.0018 265.5282 0001055 286.6803  73.3924 15.02529733 82728
STARLINK-5141           
1 55500U 23015BD  24216.84830000 -.00001704  00000+0 -11105-3 0  9998
2 55500  43.0015 265.6198 0001465 276.4930  83.5745 15.02554360 82939
STARLINK-5367           
1 55501U 23015BE  24216.50591859  .00000406  00000+0  45094-4 0  9999
2 55501  43.0008 267.3512 0001123 275.0781  84.9933 15.02538244 82882
STARLINK-5749           
1 55569U 23020A   24216.60296705 -.00001493  00000+0 -95387-4 0  9991
2 55569  43.0037 293.3422 0001328 279.2950  80.7742 15.02557753 81201
STARLINK-5737           
1 55570U 23020B   24216.67167209  .00017520  00000+0  13078-2 0  9997
2 55570  43.0013 292.9991 0001216 271.2375  88.8328 15.02564670 81218
STARLINK-5739           
1 55571U 23020C   24216.53316703  .00000700  00000+0  66859-4 0  9997
2 55571  43.0040 293.6806 0001275 270.6814  89.3882 15.02539934 81191
STARLINK-5732           
1 55572U 23020D   24216.52872940  .00000762  00000+0  71478-4 0  9998
2 55572  43.0012 293.6458 0001256 271.0529  89.0169 15.02535387 81194
STARLINK-5738           
1 55573U 23020E   24216.52983826 -.00005489  00000+0 -39145-3 0  9992
2 55573  43.0018 293.6560 0001757 276.8329  83.2314 15.02545504 81192
STARLINK-5747           
1 55574U 23020F   24216.51985675 -.00001768  00000+0 -11582-3 0  9997
2 55574  43.0023 293.5787 0001224 283.7246  76.3460 15.02540548 81191
STARLINK-5745           
1 55575U 23020G   24216.65835249  .00012649  00000+0  94933-3 0  9993
2 55575  43.0015 292.8960 0001197 279.7007  80.3700 15.02551497 81217
STARLINK-5751           
1 55576U 23020H   24216.83166955  .00001154  00000+0  10050-3 0  9992
2 55576  43.0011 265.6305 0001048 282.3159  77.7566 15.02533760 81547
STARLINK-5752           
1 55577U 23020J   24216.52207472 -.00001621  00000+0 -10504-3 0  9994
2 55577  42.9996 293.5279 0000968 264.3637  95.7095 15.02514881 81190
STARLINK-5713           
1 55578U 23020K   24216.55694500 -.00000069  00000+0  10063-4 0  9995
2 55578  42.9997 292.9787 0001527 256.0268 104.0404 15.01729385 81205
STARLINK-5754           
1 55579U 23020L   24216.56856619  .00000811  00000+0  75066-4 0  9996
2 55579  43.0027 293.0835 0001131 273.9957  86.0756 15.02543549 81208
STARLINK-5757           
1 55580U 23020M   24216.49706453  .00001067  00000+0  93983-4 0  9992
2 55580  43.0016 267.4192 0001273 271.3731  88.6966 15.02547893 81496
